{
  "links" : {
    "next" : "https://api.nasa.gov/neo/rest/v1/feed?start_date=2016-07-23&end_date=2016-07-23&detailed=true&api_key=t0TVs3DtDT2H8Oy2Zy8m2eVrNsAVKAexjcZXUckd",
    "prev" : "https://api.nasa.gov/neo/rest/v1/feed?start_date=2016-07-21&end_date=2016-07-21&detailed=true&api_key=t0TVs3DtDT2H8Oy2Zy8m2eVrNsAVKAexjcZXUckd",
    "self" : "https://api.nasa.gov/neo/rest/v1/feed?start_date=2016-07-22&end_date=2016-07-22&detailed=true&api_key=t0TVs3DtDT2H8Oy2Zy8m2eVrNsAVKAexjcZXUckd"
  },
  "element_count" : 18,
  "near_earth_objects" : {
    "2016-07-22" : [ {
      "links" : {
        "self" : "https://api.nasa.gov/neo/rest/v1/neo/3738915?api_key=t0TVs3DtDT2H8Oy2Zy8m2eVrNsAVKAexjcZXUckd"
      },
      "neo_reference_id" : "3738915",
      "name" : "(2015 YE1)",
      "nasa_jpl_url" : "http://ssd.jpl.nasa.gov/sbdb.cgi?sstr=3738915",
      "absolute_magnitude_h" : 27.4,
      "estimated_diameter" : {
        "kilometers" : {
          "estimated_diameter_min" : 0.0088014652,
          "estimated_diameter_max" : 0.0196806745
        },
        "meters" : {
          "estimated_diameter_min" : 8.801465209,
          "estimated_diameter_max" : 19.6806745089
        },
        "miles" : {
          "estimated_diameter_min" : 0.0054689752,
          "estimated_diameter_max" : 0.0122290004
        },
        "feet" : {
          "estimated_diameter_min" : 28.8761991163,
          "estimated_diameter_max" : 64.5691441559
        }
      },
      "is_potentially_hazardous_asteroid" : false,
      "close_approach_data" : [ {
        "close_approach_date" : "2016-07-22",
        "epoch_date_close_approach" : 1469170800000,
        "relative_velocity" : {
          "kilometers_per_second" : "8.7926523195",
          "kilometers_per_hour" : "31653.5483503767",
          "miles_per_hour" : "19668.2839735993"
        },
        "miss_distance" : {
          "astronomical" : "0.4938234192",
          "lunar" : "192.0973052979",
          "kilometers" : "73874928",
          "miles" : "45903756"
        },
        "orbiting_body" : "Earth"
      } ],
      "orbital_data" : {
        "orbit_id" : "10",
        "orbit_determination_date" : "2017-04-06 08:29:42",
        "orbit_uncertainty" : "7",
        "minimum_orbit_intersection" : ".0147558",
        "jupiter_tisserand_invariant" : "5.219",
        "epoch_osculation" : "2458000.5",
        "eccentricity" : ".320674733659956",
        "semi_major_axis" : "1.203866731944469",
        "inclination" : "10.13797178112111",
        "ascending_node_longitude" : "86.08994534883644",
        "orbital_period" : "482.4652592104445",
        "perihelion_distance" : ".817817088316095",
        "perihelion_argument" : "77.72210443812547",
        "aphelion_distance" : "1.589916375572844",
        "perihelion_time" : "2457916.728175695683",
        "mean_anomaly" : "62.50783071698762",
        "mean_motion" : ".7461677149337981",
        "equinox" : "J2000"
      }
    }, {
      "links" : {
        "self" : "https://api.nasa.gov/neo/rest/v1/neo/3743127?api_key=t0TVs3DtDT2H8Oy2Zy8m2eVrNsAVKAexjcZXUckd"
      },
      "neo_reference_id" : "3743127",
      "name" : "(2016 CZ192)",
      "nasa_jpl_url" : "http://ssd.jpl.nasa.gov/sbdb.cgi?sstr=3743127",
      "absolute_magnitude_h" : 24.6,
      "estimated_diameter" : {
        "kilometers" : {
          "estimated_diameter_min" : 0.0319561887,
          "estimated_diameter_max" : 0.0714562102
        },
        "meters" : {
          "estimated_diameter_min" : 31.9561886721,
          "estimated_diameter_max" : 71.4562101727
        },
        "miles" : {
          "estimated_diameter_min" : 0.0198566489,
          "estimated_diameter_max" : 0.0444008168
        },
        "feet" : {
          "estimated_diameter_min" : 104.8431420431,
          "estimated_diameter_max" : 234.436392583
        }
      },
      "is_potentially_hazardous_asteroid" : false,
      "close_approach_data" : [ {
        "close_approach_date" : "2016-07-22",
        "epoch_date_close_approach" : 1469170800000,
        "relative_velocity" : {
          "kilometers_per_second" : "13.6619013989",
          "kilometers_per_hour" : "49182.8450360573",
          "miles_per_hour" : "30560.3072392101"
        },
        "miss_distance" : {
          "astronomical" : "0.3312078799",
          "lunar" : "128.8398590088",
          "kilometers" : "49547992",
          "miles" : "30787696"
        },
        "orbiting_body" : "Earth"
      } ],
      "orbital_data" : {
        "orbit_id" : "10",
        "orbit_determination_date" : "2017-04-06 08:28:24",
        "orbit_uncertainty" : "6",
        "minimum_orbit_intersection" : ".071717",
        "jupiter_tisserand_invariant" : "6.692",
        "epoch_osculation" : "2458000.5",
        "eccentricity" : ".2630486253359067",
        "semi_major_axis" : ".8769044774154119",
        "inclination" : "16.7365390277293",
        "ascending_node_longitude" : "144.4533846921646",
        "orbital_period" : "299.9348002884523",
        "perihelion_distance" : ".6462359600803861",
        "perihelion_argument" : "206.0642297663216",
        "aphelion_distance" : "1.107572994750438",
        "perihelion_time" : "2457918.770475267108",
        "mean_anomaly" : "98.09674927865997",
        "mean_motion" : "1.200260855538544",
        "equinox" : "J2000"
      }
    }, {
      "links" : {
        "self" : "https://api.nasa.gov/neo/rest/v1/neo/3748517?api_key=t0TVs3DtDT2H8Oy2Zy8m2eVrNsAVKAexjcZXUckd"
      },
      "neo_reference_id" : "3748517",
      "name" : "(2016 FT14)",
      "nasa_jpl_url" : "http://ssd.jpl.nasa.gov/sbdb.cgi?sstr=3748517",
      "absolute_magnitude_h" : 24.8,
      "estimated_diameter" : {
        "kilometers" : {
          "estimated_diameter_min" : 0.0291443905,
          "estimated_diameter_max" : 0.0651688382
        },
        "meters" : {
          "estimated_diameter_min" : 29.1443904535,
          "estimated_diameter_max" : 65.1688382168
        },
        "miles" : {
          "estimated_diameter_min" : 0.018109479,
          "estimated_diameter_max" : 0.0404940262
        },
        "feet" : {
          "estimated_diameter_min" : 95.6180819754,
          "estimated_diameter_max" : 213.8085311752
        }
      },
      "is_potentially_hazardous_asteroid" : false,
      "close_approach_data" : [ {
        "close_approach_date" : "2016-07-22",
        "epoch_date_close_approach" : 1469170800000,
        "relative_velocity" : {
          "kilometers_per_second" : "5.7986093732",
          "kilometers_per_hour" : "20874.993743385",
          "miles_per_hour" : "12970.9093068272"
        },
        "miss_distance" : {
          "astronomical" : "0.2679858376",
          "lunar" : "104.2464981079",
          "kilometers" : "40090112",
          "miles" : "24910842"
        },
        "orbiting_body" : "Earth"
      } ],
      "orbital_data" : {
        "orbit_id" : "3",
        "orbit_determination_date" : "2017-04-06 08:27:02",
        "orbit_uncertainty" : "7",
        "minimum_orbit_intersection" : ".0459153",
        "jupiter_tisserand_invariant" : "6.842",
        "epoch_osculation" : "2458000.5",
        "eccentricity" : ".2594358038122431",
        "semi_major_axis" : ".8587271731829109",
        "inclination" : "4.358382004115419",
        "ascending_node_longitude" : "197.0979396582573",
        "orbital_period" : "290.6573003551059",
        "perihelion_distance" : ".6359425987527871",
        "perihelion_argument" : "183.5971366094042",
        "aphelion_distance" : "1.081511747613035",
        "perihelion_time" : "2457931.634895813351",
        "mean_anomaly" : "85.29439128797061",
        "mean_motion" : "1.238572021277896",
        "equinox" : "J2000"
      }
    } ]
  }
}